ASTROCAST-0403          
1 55111U 23001DG  26068.82333059  .00013959  00000+0  51317-3 0  9990
2 55111  97.5604 161.3228 0004771 338.0704  22.0330 15.28004949129377
STARLINK-33731          
1 63475U 25070R   26068.83240881  .00025273  00000+0  92515-3 0  9998
2 63475  43.0010 259.3917 0001678 276.4294  83.6366 15.27565870 52990
